STARLINK-31943          
1 59878U 24098W   26067.99443929  .00024142  00000+0  86464-3 0  9993
2 59878  43.0020 285.9160 0002992 274.9020  85.1490 15.28302612101048
AL MUNTHER              
1 63240U 25052AG  26068.64540749  .00017933  00000+0  65015-3 0  9992
2 63240  97.4001 323.9152 0008027 130.7043 229.4895 15.28381521 54798
